OBJECT_NAME,OBJECT_ID,EPOCH,MEAN_MOTION,ECCENTRICITY,INCLINATION,RA_OF_ASC_NODE,ARG_OF_PERICENTER,MEAN_ANOMALY,EPHEMERIS_TYPE,CLASSIFICATION_TYPE,NORAD_CAT_ID,ELEMENT_SET_NO,REV_AT_EPOCH,BSTAR,MEAN_MOTION_DOT,MEAN_MOTION_DDOT
STARLINK-37508,2026-117V,2026-06-16T13:51:29.672928,15.80917435,.00011763,53.1577,246.2523,42.0750,318.0363,0,U,69257,999,288,.68624687E-3,.137197E-2,0
STARLINK-37276,2026-117W,2026-06-16T13:12:41.277600,15.80901836,.00018504,53.1576,246.0686,46.3191,313.7985,0,U,69258,999,288,.56758166E-3,.112953E-2,0
STARLINK-37518,2026-117X,2026-06-16T13:14:29.086656,15.80940941,.00013001,53.1575,246.0777,108.1151,252.0014,0,U,69259,999,288,.10270528E-2,.207604E-2,0
STARLINK-37478,2026-117Y,2026-06-16T13:14:46.636224,15.80910396,.00009548,53.1578,246.0797,82.1313,277.9818,0,U,69260,999,288,.55427591E-3,.110294E-2,0
STARLINK-37506,2026-117Z,2026-06-16T13:14:04.455744,15.80913972,.00009537,53.1573,246.0749,83.1917,276.9214,0,U,69261,999,288,.62046393E-3,.123763E-2,0
STARLINK-37503,2026-117AA,2026-06-16T13:13:42.060864,15.80942146,.00011671,53.1575,246.0736,64.1982,295.9161,0,U,69262,999,288,.8515558E-3,.17129E-2,0
STARLINK-37502,2026-117AB,2026-06-16T13:12:57.947616,15.80902736,.00015865,53.1578,246.0694,64.7018,295.4169,0,U,69263,999,288,.52534867E-3,.104394E-2,0
STARLINK-37486,2026-117AC,2026-06-16T13:11:12.479136,15.80902565,.00010247,53.1572,246.0616,68.7542,291.3590,0,U,69264,999,288,.44470748E-3,.88092E-3,0
STARLINK-37435,2026-117AD,2026-06-16T13:13:21.037152,15.80902409,.00008559,53.1574,246.0706,90.5401,269.5720,0,U,69265,999,288,.51864066E-3,.103032E-2,0
STARLINK-37464,2026-117AE,2026-06-16T13:07:35.146848,15.82014102,.00011448,53.1572,246.0427,60.7501,299.3636,0,U,69266,999,288,.42740312E-3,.89147E-3,0
KUIPER-00282,2026-118A,2026-06-16T07:26:47.162976,15.34385102,.00116198,51.8588,57.7906,178.2924,181.8103,0,U,69267,999,384,-.13228607E-2,-.4494E-3,0
KUIPER-00383,2026-118B,2026-06-16T13:37:40.670976,15.34467770,.0010222,51.8599,56.5178,179.9329,180.1659,0,U,69268,999,388,.69863357E-3,.23407E-3,0
KUIPER-00527,2026-118C,2026-06-16T13:31:13.052928,15.34901818,.00100534,51.8624,56.4910,175.7304,184.3769,0,U,69269,999,388,.21849311E-4,.366E-5,0
KUIPER-00562,2026-118D,2026-06-16T12:45:43.941312,15.38616918,.00018328,51.8730,56.2855,110.6074,249.5110,0,U,69270,999,388,.56698528E-3,.21633E-3,0
KUIPER-00570,2026-118E,2026-06-16T13:34:27.218784,15.34596796,.00118541,51.8580,56.5004,182.3303,177.7630,0,U,69271,999,388,.15748328E-3,.4989E-4,0
KUIPER-00572,2026-118F,2026-06-16T13:12:29.462400,15.37010181,.00071036,51.8682,56.4119,168.5919,191.5230,0,U,69272,999,388,.61766902E-3,.22405E-3,0
KUIPER-00581,2026-118G,2026-06-16T13:17:56.286816,15.36635884,.00088796,51.8666,56.4346,172.8362,187.2753,0,U,69273,999,397,.52198584E-3,.18641E-3,0
KUIPER-00584,2026-118H,2026-06-16T13:37:36.896160,15.34531913,.00122778,51.8605,56.5135,184.0482,176.0406,0,U,69274,999,388,.23000847E-3,.7452E-4,0
KUIPER-00587,2026-118J,2026-06-16T13:17:02.044032,15.36682292,.00081439,51.8638,56.4288,175.8695,184.2360,0,U,69275,999,388,.6266402E-3,.22499E-3,0
KUIPER-00590,2026-118K,2026-06-16T12:57:52.579296,15.37907758,.00041044,51.8700,56.3467,155.4183,204.7001,0,U,69276,999,388,.58262905E-3,.2173E-3,0
KUIPER-00592,2026-118L,2026-06-16T12:54:21.447072,15.38083211,.0003713,51.8718,56.3299,132.0611,228.0692,0,U,69277,999,388,.51638543E-3,.19319E-3,0
KUIPER-00593,2026-118M,2026-06-16T12:55:21.843264,15.38044177,.00036689,51.8726,56.3336,149.9323,210.1875,0,U,69278,999,394,.49260671E-3,.18385E-3,0
KUIPER-00594,2026-118N,2026-06-16T12:44:04.212384,15.38652904,.00010635,51.8725,56.2815,81.8177,278.2931,0,U,69279,999,388,.46680451E-3,.17753E-3,0
KUIPER-00595,2026-118P,2026-06-16T12:47:09.370176,15.38566125,.00018557,51.8717,56.2970,132.4983,227.6161,0,U,69280,999,391,.74007568E-3,.28336E-3,0
KUIPER-00596,2026-118Q,2026-06-16T07:20:26.883744,15.34673558,.00126317,51.8553,57.7567,181.5807,178.5140,0,U,69281,999,384,.53664355E-3,.18011E-3,0
KUIPER-00597,2026-118R,2026-06-16T13:10:05.828448,15.37022736,.00070766,51.8661,56.3995,169.5810,190.5325,0,U,69282,999,388,.48936884E-3,.17665E-3,0
KUIPER-00599,2026-118S,2026-06-16T13:06:07.125984,15.37382458,.00061646,51.8702,56.3837,161.7512,198.3697,0,U,69283,999,388,.52838337E-3,.19333E-3,0
KUIPER-00600,2026-118T,2026-06-16T13:15:59.630400,15.36729077,.00088931,51.8654,56.4251,172.1234,187.9894,0,U,69284,999,388,.59604996E-3,.21415E-3,0
KUIPER-00601,2026-118U,2026-06-16T13:01:19.263648,15.37653718,.00046644,51.8720,56.3621,151.5427,208.5815,0,U,69285,999,388,.51421209E-3,.18967E-3,0
KUIPER-00602,2026-118V,2026-06-16T12:53:09.960576,15.38173432,.00029659,51.8713,56.3252,143.2418,216.8773,0,U,69286,999,388,.48301086E-3,.18095E-3,0
