STARLINK-37508          
1 69257U 26117V   26167.57742677  .00137197  00000+0  68625-3 0  9990
2 69257  53.1577 246.2523 0001176  42.0750 318.0363 15.80917435  2881
STARLINK-37276          
1 69258U 26117W   26167.55047775  .00112953  00000+0  56758-3 0  9993
2 69258  53.1576 246.0686 0001850  46.3191 313.7985 15.80901836  2884
STARLINK-37518          
1 69259U 26117X   26167.55172554  .00207604  00000+0  10271-2 0  9995
2 69259  53.1575 246.0777 0001300 108.1151 252.0014 15.80940941  2886
STARLINK-37478          
1 69260U 26117Y   26167.55192866  .00110294  00000+0  55428-3 0  9997
2 69260  53.1578 246.0797 0000954  82.1313 277.9818 15.80910396  2887
STARLINK-37506          
1 69261U 26117Z   26167.55144046  .00123763  00000+0  62046-3 0  9994
2 69261  53.1573 246.0749 0000953  83.1917 276.9214 15.80913972  2882
STARLINK-37503          
1 69262U 26117AA  26167.55118126  .00171290  00000+0  85156-3 0  9990
2 69262  53.1575 246.0736 0001167  64.1982 295.9161 15.80942146  2887
STARLINK-37502          
1 69263U 26117AB  26167.55067069  .00104394  00000+0  52535-3 0  9996
2 69263  53.1578 246.0694 0001586  64.7018 295.4169 15.80902736  2889
STARLINK-37486          
1 69264U 26117AC  26167.54944999  .00088092  00000+0  44471-3 0  9998
2 69264  53.1572 246.0616 0001024  68.7542 291.3590 15.80902565  2884
STARLINK-37435          
1 69265U 26117AD  26167.55093793  .00103032  00000+0  51864-3 0  9993
2 69265  53.1574 246.0706 0000855  90.5401 269.5720 15.80902409  2884
STARLINK-37464          
1 69266U 26117AE  26167.54693457  .00089147  00000+0  42740-3 0  9999
2 69266  53.1572 246.0427 0001144  60.7501 299.3636 15.82014102  2888
KUIPER-00282            
1 69267U 26118A   26167.31026809 -.00044940  00000+0 -13229-2 0  9990
2 69267  51.8588  57.7906 0011619 178.2924 181.8103 15.34385102  3841
KUIPER-00383            
1 69268U 26118B   26167.56783184  .00023407  00000+0  69863-3 0  9993
2 69268  51.8599  56.5178 0010222 179.9329 180.1659 15.34467770  3882
KUIPER-00527            
1 69269U 26118C   26167.56334552  .00000366  00000+0  21849-4 0  9997
2 69269  51.8624  56.4910 0010053 175.7304 184.3769 15.34901818  3888
KUIPER-00562            
1 69270U 26118D   26167.53175858  .00021633  00000+0  56699-3 0  9998
2 69270  51.8730  56.2855 0001832 110.6074 249.5110 15.38616918  3883
KUIPER-00570            
1 69271U 26118E   26167.56559281  .00004989  00000+0  15748-3 0  9993
2 69271  51.8580  56.5004 0011854 182.3303 177.7630 15.34596796  3888
KUIPER-00572            
1 69272U 26118F   26167.55034100  .00022405  00000+0  61767-3 0  9996
2 69272  51.8682  56.4119 0007103 168.5919 191.5230 15.37010181  3881
KUIPER-00581            
1 69273U 26118G   26167.55412369  .00018641  00000+0  52199-3 0  9990
2 69273  51.8666  56.4346 0008879 172.8362 187.2753 15.36635884  3971
KUIPER-00584            
1 69274U 26118H   26167.56778815  .00007452  00000+0  23001-3 0  9991
2 69274  51.8605  56.5135 0012277 184.0482 176.0406 15.34531913  3884
KUIPER-00587            
1 69275U 26118J   26167.55349588  .00022499  00000+0  62664-3 0  9998
2 69275  51.8638  56.4288 0008143 175.8695 184.2360 15.36682292  3889
KUIPER-00590            
1 69276U 26118K   26167.54019189  .00021730  00000+0  58263-3 0  9996
2 69276  51.8700  56.3467 0004104 155.4183 204.7001 15.37907758  3885
KUIPER-00592            
1 69277U 26118L   26167.53774823  .00019319  00000+0  51639-3 0  9999
2 69277  51.8718  56.3299 0003713 132.0611 228.0692 15.38083211  3885
KUIPER-00593            
1 69278U 26118M   26167.53844726  .00018385  00000+0  49261-3 0  9990
2 69278  51.8726  56.3336 0003668 149.9323 210.1875 15.38044177  3943
KUIPER-00594            
1 69279U 26118N   26167.53060431  .00017753  00000+0  46680-3 0  9994
2 69279  51.8725  56.2815 0001063  81.8177 278.2931 15.38652904  3886
KUIPER-00595            
1 69280U 26118P   26167.53274734  .00028336  00000+0  74008-3 0  9993
2 69280  51.8717  56.2970 0001855 132.4983 227.6161 15.38566125  3914
KUIPER-00596            
1 69281U 26118Q   26167.30586671  .00018011  00000+0  53664-3 0  9999
2 69281  51.8553  57.7567 0012631 181.5807 178.5140 15.34673558  3843
KUIPER-00597            
1 69282U 26118R   26167.54867857  .00017665  00000+0  48937-3 0  9995
2 69282  51.8661  56.3995 0007076 169.5810 190.5325 15.37022736  3883
KUIPER-00599            
1 69283U 26118S   26167.54591581  .00019333  00000+0  52838-3 0  9993
2 69283  51.8702  56.3837 0006164 161.7512 198.3697 15.37382458  3883
KUIPER-00600            
1 69284U 26118T   26167.55277350  .00021415  00000+0  59605-3 0  9993
2 69284  51.8654  56.4251 0008893 172.1234 187.9894 15.36729077  3883
KUIPER-00601            
1 69285U 26118U   26167.54258407  .00018967  00000+0  51421-3 0  9991
2 69285  51.8720  56.3621 0004664 151.5427 208.5815 15.37653718  3887
KUIPER-00602            
1 69286U 26118V   26167.53692084  .00018095  00000+0  48301-3 0  9999
2 69286  51.8713  56.3252 0002965 143.2418 216.8773 15.38173432  3886
